BEIDOU-3S IGSO-1S       
1 40549U 15019A   26183.80025122 -.00000190  00000+0  00000+0 0  9997
2 40549  49.1798 295.2769 0076860 219.1125 144.2493  1.00680073 41232
NAVSTAR 74 (USA 262)    
1 40730U 15033A   26195.64393983  .00000003  00000+0  00000+0 0  9995
2 40730  53.9615 265.9533 0115341  30.2916 330.4522  2.00554823 80549
BEIDOU-3S M2S           
1 40748U 15037A   26195.70782088 -.00000067  00000+0  00000+0 0  9994
2 40748  54.8448 301.0992 0009417 256.9045 103.0206  1.86232026 74636
BEIDOU-3S M1S           
1 40749U 15037B   26195.37496959 -.00000066  00000+0  00000+0 0  9996
2 40749  54.8414 301.0972 0002771  63.4043 296.6528  1.86254768 74636
GSAT0206 (GALILEO 10)   
1 40890U 15045B   26195.44010403  .00000065  00000+0  00000+0 0  9994
2 40890  54.9389 220.8513 0002159 328.3003  31.7529  1.70473502 67502
BEIDOU-3S IGSO-2S       
1 40938U 15053A   26196.14773466 -.00000091  00000+0  00000+0 0  9999
2 40938  49.1789 258.4479 0066249 193.1115 347.9978  1.00252631 39639
NAVSTAR 75 (USA 265)    
1 41019U 15062A   26194.20306862 -.00000056  00000+0  00000+0 0  9998
2 41019  56.9770  29.8096 0112774 230.8892 128.1524  2.00566902 78355
GSAT-15                 
1 41028U 15065A   26195.36368464  .00000000  00000+0  00000+0 0  9993
2 41028   0.0277  63.4769 0003580  29.8725  63.3157  1.00267881 39074
GSAT0209 (GALILEO 12)   
1 41174U 15079A   26195.02182816 -.00000029  00000+0  00000+0 0  9990
2 41174  55.8424 100.5256 0004793 355.0835   4.9328  1.70473559 65231
GSAT0208 (GALILEO 11)   
1 41175U 15079B   26194.06902902 -.00000030  00000+0  00000+0 0  9992
2 41175  55.8391 100.5488 0004537  14.0255 346.0022  1.70473434 65633
IRNSS-1E                
1 41241U 16003A   26194.04240410 -.00000321  00000+0  00000+0 0  9994
2 41241  33.2887  59.3748 0018977 176.6620 181.8769  1.00278688 38338
NAVSTAR 76 (USA 266)    
1 41328U 16007A   26194.29449026 -.00000032  00000+0  00000+0 0  9994
2 41328  55.5398  88.4243 0096616 247.6192 111.3962  2.00575425 76368
COSMOS 2514 [GLONASS-M] 
1 41330U 16008A   26195.97152610 -.00000061  00000+0  00000+0 0  9996
2 41330  65.0033 312.0531 0012301 201.1240 158.8381  2.13102507 81219
BEIDOU-2 IGSO-6         
1 41434U 16021A   26177.11016981 -.00000145  00000+0  00000+0 0  9995
2 41434  60.2385  37.9495 0057558 231.0163 137.2672  1.00258926 37578
IRNSS-1G                
1 41469U 16027A   26195.72958331 -.00000346  00000+0  00000+0 0  9993
2 41469   5.2616  96.8380 0006006  11.1116 216.9679  1.00271137 37454
GSAT0211 (GALILEO 14)   
1 41549U 16030A   26195.36582065  .00000066  00000+0  00000+0 0  9991
2 41549  55.0898 220.9468 0003383 318.5013  41.5401  1.70473656 63136
GSAT0210 (GALILEO 13)   
1 41550U 16030B   26195.62306105  .00000064  00000+0  00000+0 0  9999
2 41550  55.0888 220.9379 0004719 246.1345 113.8809  1.70473871 63130
BEIDOU-2 G7             
1 41586U 16037A   26196.07421034 -.00000364  00000+0  00000+0 0  9998
2 41586   1.7865  69.4894 0005907 359.5962   1.0986  1.00273474  7169
EUTELSAT 117 WEST B     
1 41589U 16038B   26194.92184275 -.00000017  00000+0  00000+0 0  9992
2 41589   0.0083 162.9812 0000266 316.7358  26.9360  1.00269922 36934
GSAT0207 (GALILEO 15)   
1 41859U 16069A   26192.96868882 -.00000030  00000+0  00000+0 0  9996
2 41859  55.5126 100.4004 0004522 339.9754  20.0172  1.70473524 59824
GSAT0212 (GALILEO 16)   
1 41860U 16069B   26195.75505462 -.00000028  00000+0  00000+0 0  9997
2 41860  55.5126 100.3182 0004384  15.0007 345.0381  1.70473579 60128
GSAT0213 (GALILEO 17)   
1 41861U 16069C   26194.36243565 -.00000031  00000+0  00000+0 0  9991
2 41861  55.5134 100.3648 0004126 318.6741  41.3115  1.70474037 59967
GSAT0214 (GALILEO 18)   
1 41862U 16069D   26195.09530723 -.00000030  00000+0  00000+0 0  9997
2 41862  55.5122 100.3371 0003296 333.1197  26.8847  1.70473685 60108
SES-15                  
1 42709U 17026A   26196.03252360  .00000051  00000+0  00000+0 0  9997
2 42709   0.0255 332.5228 0000276 128.9444  73.9557  1.00268637  7712
QZS-2 (MICHIBIKI-2)     
1 42738U 17028A   26195.44629182 -.00000120  00000+0  00000+0 0  9993
2 42738  39.3876 242.7519 0757556 269.5906  83.0468  1.00276942  7900
QZS-3 (MICHIBIKI-3)     
1 42917U 17048A   26196.00550986 -.00000357  00000+0  00000+0 0  9994
2 42917   0.0657 214.5440 0002510 272.0036 295.3328  1.00272188 32535
COSMOS 2522 [GLONASS-M] 
1 42939U 17055A   26195.33991172  .00000064  00000+0  00000+0 0  9991
2 42939  64.0806 190.9601 0010939 240.7377 119.1613  2.13101791 68552
QZS-4 (MICHIBIKI-4)     
1 42965U 17062A   26193.73476241 -.00000331  00000+0  00000+0 0  9993
2 42965  40.0933 343.1604 0747458 268.5188  82.4158  1.00290649 32050
BEIDOU-3 M1             
1 43001U 17069A   26194.98087216 -.00000038  00000+0  00000+0 0  9994
2 43001  56.7152  62.2026 0009261 328.5665  31.4523  1.86230799 59105
BEIDOU-3 M2             
1 43002U 17069B   26195.99359285 -.00000040  00000+0  00000+0 0  9998
2 43002  56.7152  62.2056 0008576 355.1932   4.8736  1.86230637 59112
GSAT0215 (GALILEO 19)   
1 43055U 17079A   26196.17143387  .00000059  00000+0  00000+0 0  9991
2 43055  55.0676 220.7362 0003831 269.4103  90.6058  1.70474281 53460
